start=new Date('2022-05-24T00:00:00.000Z').valueOf();
sats=[{"ARG_OF_PERICENTER":"87.0222","REF_FRAME":"TEME","PERIAPSIS":"379.502","ECCENTRICITY":"0.00010520","MEAN_MOTION":"15.62578908","OBJECT_TYPE":"PAYLOAD","MEAN_ELEMENT_THEORY":"SGP4","EPHEMERIS_TYPE":"0","TLE_LINE2":"2 51994  53.2173 127.0482 0001052  87.0222 344.7829 15.62578908 13141","FILE":"3460797","MEAN_MOTION_DOT":"-0.00714488","ELEMENT_SET_NO":"999","DECAY_DATE":null,"COUNTRY_CODE":"US","REV_AT_EPOCH":"1314","OBJECT_ID":"2022-025AQ","MEAN_MOTION_DDOT":"0.0000000000000","RCS_SIZE":"LARGE","OBJECT_NAME":"STARLINK-3647","PERIOD":"92.155","TIME_SYSTEM":"UTC","INCLINATION":"53.2173","APOAPSIS":"380.924","EPOCH":"2022-05-23T22:00:01.999584","SITE":"AFETR","GP_ID":"204342120","TLE_LINE1":"1 51994U 22025AQ  22143.91668981 -.00714488  00000-0 -85687-2 0  9999","NORAD_CAT_ID":"51994","SEMIMAJOR_AXIS":"6758.348","BSTAR":"-0.00856870000000","CENTER_NAME":"EARTH","LAUNCH_DATE":"2022-03-09","RA_OF_ASC_NODE":"127.0482","CLASSIFICATION_TYPE":"U","MEAN_ANOMALY":"344.7829"},{"MEAN_ELEMENT_THEORY":"SGP4","EPHEMERIS_TYPE":"0","TLE_LINE2":"2 51995  53.2173 127.0320 0001050  92.1465 337.4268 15.62565787  1309","FILE":"3460905","MEAN_MOTION_DOT":"-0.00714493","ELEMENT_SET_NO":"999","DECAY_DATE":null,"COUNTRY_CODE":"US","REV_AT_EPOCH":"130","MEAN_MOTION_DDOT":"0.0000000000000","OBJECT_ID":"2022-025AR","RCS_SIZE":"LARGE","OBJECT_NAME":"STARLINK-3636","PERIOD":"92.156","ARG_OF_PERICENTER":"92.1465","REF_FRAME":"TEME","PERIAPSIS":"379.541","ECCENTRICITY":"0.00010500","MEAN_MOTION":"15.62565787","OBJECT_TYPE":"PAYLOAD","SEMIMAJOR_AXIS":"6758.386","BSTAR":"-0.00857320000000","CENTER_NAME":"EARTH","RA_OF_ASC_NODE":"127.0320","LAUNCH_DATE":"2022-03-09","MEAN_ANOMALY":"337.4268","CLASSIFICATION_TYPE":"U","TIME_SYSTEM":"UTC","INCLINATION":"53.2173","APOAPSIS":"380.960","EPOCH":"2022-05-23T22:00:01.999584","SITE":"AFETR","TLE_LINE1":"1 51995U 22025AR  22143.91668981 -.00714493  00000-0 -85732-2 0  9997","GP_ID":"204368366","NORAD_CAT_ID":"51995"},{"GP_ID":"204336508","TLE_LINE1":"1 51996U 22025AS  22143.91668981 -.00714541  00000-0 -85679-2 0  9992","NORAD_CAT_ID":"51996","INCLINATION":"53.2173","TIME_SYSTEM":"UTC","APOAPSIS":"380.917","SITE":"AFETR","EPOCH":"2022-05-23T22:00:01.999584","BSTAR":"-0.00856790000000","LAUNCH_DATE":"2022-03-09","RA_OF_ASC_NODE":"127.0536","CENTER_NAME":"EARTH","MEAN_ANOMALY":"341.5002","CLASSIFICATION_TYPE":"U","SEMIMAJOR_AXIS":"6758.335","MEAN_MOTION":"15.62583275","OBJECT_TYPE":"PAYLOAD","REF_FRAME":"TEME","ARG_OF_PERICENTER":"91.0488","PERIAPSIS":"379.483","ECCENTRICITY":"0.00010610","RCS_SIZE":"LARGE","OBJECT_NAME":"STARLINK-3538","PERIOD":"92.155","TLE_LINE2":"2 51996  53.2173 127.0536 0001061  91.0488 341.5002 15.62583275 13132","MEAN_MOTION_DOT":"-0.00714541","FILE":"3460594","MEAN_ELEMENT_THEORY":"SGP4","EPHEMERIS_TYPE":"0","ELEMENT_SET_NO":"999","REV_AT_EPOCH":"1313","DECAY_DATE":null,"COUNTRY_CODE":"US","MEAN_MOTION_DDOT":"0.0000000000000","OBJECT_ID":"2022-025AS"},{"CENTER_NAME":"EARTH","RA_OF_ASC_NODE":"127.0373","LAUNCH_DATE":"2022-03-09","CLASSIFICATION_TYPE":"U","MEAN_ANOMALY":"337.8683","BSTAR":"-0.00857110000000","SEMIMAJOR_AXIS":"6758.373","NORAD_CAT_ID":"51997","TLE_LINE1":"1 51997U 22025AT  22143.91668981 -.00714445  00000-0 -85711-2 0  9993","GP_ID":"204368267","EPOCH":"2022-05-23T22:00:01.999584","SITE":"AFETR","TIME_SYSTEM":"UTC","INCLINATION":"53.2173","APOAPSIS":"380.946","PERIOD":"92.156","OBJECT_NAME":"STARLINK-3589","RCS_SIZE":"LARGE","COUNTRY_CODE":"US","DECAY_DATE":null,"REV_AT_EPOCH":"130","OBJECT_ID":"2022-025AT","MEAN_MOTION_DDOT":"0.0000000000000","MEAN_ELEMENT_THEORY":"SGP4","EPHEMERIS_TYPE":"0","TLE_LINE2":"2 51997  53.2173 127.0373 0001047  92.4489 337.8683 15.62570153  1302","FILE":"3460905","MEAN_MOTION_DOT":"-0.00714445","ELEMENT_SET_NO":"999","OBJECT_TYPE":"PAYLOAD","MEAN_MOTION":"15.62570153","ECCENTRICITY":"0.00010470","ARG_OF_PERICENTER":"92.4489","REF_FRAME":"TEME","PERIAPSIS":"379.530"},{"REV_AT_EPOCH":"130","DECAY_DATE":null,"COUNTRY_CODE":"US","MEAN_MOTION_DDOT":"0.0000000000000","OBJECT_ID":"2022-025AU","TLE_LINE2":"2 51998  53.2174 127.1052 0001090  76.5955 357.4399 15.62593026  1304","FILE":"3460905","MEAN_MOTION_DOT":"-0.00714698","MEAN_ELEMENT_THEORY":"SGP4","EPHEMERIS_TYPE":"0","ELEMENT_SET_NO":"999","PERIOD":"92.155","OBJECT_NAME":"STARLINK-3618","RCS_SIZE":"LARGE","ECCENTRICITY":"0.00010900","REF_FRAME":"TEME","ARG_OF_PERICENTER":"76.5955","PERIAPSIS":"379.435","OBJECT_TYPE":"PAYLOAD","MEAN_MOTION":"15.62593026","SEMIMAJOR_AXIS":"6758.307","RA_OF_ASC_NODE":"127.1052","LAUNCH_DATE":"2022-03-09","CENTER_NAME":"EARTH","MEAN_ANOMALY":"357.4399","CLASSIFICATION_TYPE":"U","BSTAR":"-0.00856660000000","SITE":"AFETR","EPOCH":"2022-05-23T22:00:01.999584","INCLINATION":"53.2174","TIME_SYSTEM":"UTC","APOAPSIS":"380.909","NORAD_CAT_ID":"51998","TLE_LINE1":"1 51998U 22025AU  22143.91668981 -.00714698  00000-0 -85666-2 0  9993","GP_ID":"204368469"},{"MEAN_MOTION":"15.62587562","OBJECT_TYPE":"PAYLOAD","REF_FRAME":"TEME","ARG_OF_PERICENTER":"103.1527","PERIAPSIS":"379.460","ECCENTRICITY":"0.00010770","OBJECT_NAME":"STARLINK-3667","RCS_SIZE":"LARGE","PERIOD":"92.155","FILE":"3460905","TLE_LINE2":"2 51999  53.2173 127.0569 0001077 103.1527 330.1403 15.62587562  1305","MEAN_MOTION_DOT":"-0.00714455","MEAN_ELEMENT_THEORY":"SGP4","EPHEMERIS_TYPE":"0","ELEMENT_SET_NO":"999","REV_AT_EPOCH":"130","DECAY_DATE":null,"COUNTRY_CODE":"US","OBJECT_ID":"2022-025AV","MEAN_MOTION_DDOT":"0.0000000000000","TLE_LINE1":"1 51999U 22025AV  22143.91668981 -.00714455  00000-0 -85653-2 0  9991","GP_ID":"204368699","NORAD_CAT_ID":"51999","INCLINATION":"53.2173","TIME_SYSTEM":"UTC","APOAPSIS":"380.916","SITE":"AFETR","EPOCH":"2022-05-23T22:00:01.999584","BSTAR":"-0.00856530000000","LAUNCH_DATE":"2022-03-09","RA_OF_ASC_NODE":"127.0569","CENTER_NAME":"EARTH","MEAN_ANOMALY":"330.1403","CLASSIFICATION_TYPE":"U","SEMIMAJOR_AXIS":"6758.323"},{"ELEMENT_SET_NO":"999","MEAN_ELEMENT_THEORY":"SGP4","EPHEMERIS_TYPE":"0","TLE_LINE2":"2 52000  53.2174 127.1140 0001097  74.3597   1.1633 15.62601751  1301","FILE":"3460905","MEAN_MOTION_DOT":"-0.00714710","OBJECT_ID":"2022-025AW","MEAN_MOTION_DDOT":"0.0000000000000","DECAY_DATE":null,"COUNTRY_CODE":"US","REV_AT_EPOCH":"130","RCS_SIZE":"LARGE","OBJECT_NAME":"STARLINK-3653","PERIOD":"92.154","PERIAPSIS":"379.406","ARG_OF_PERICENTER":"74.3597","REF_FRAME":"TEME","ECCENTRICITY":"0.00010970","MEAN_MOTION":"15.62601751","OBJECT_TYPE":"PAYLOAD","SEMIMAJOR_AXIS":"6758.282","BSTAR":"-0.00856380000000","CLASSIFICATION_TYPE":"U","MEAN_ANOMALY":"1.1633","CENTER_NAME":"EARTH","LAUNCH_DATE":"2022-03-09","RA_OF_ASC_NODE":"127.1140","APOAPSIS":"380.888","TIME_SYSTEM":"UTC","INCLINATION":"53.2174","EPOCH":"2022-05-23T22:00:01.999584","SITE":"AFETR","TLE_LINE1":"1 52000U 22025AW  22143.91668981 -.00714710  00000-0 -85638-2 0  9992","GP_ID":"204368569","NORAD_CAT_ID":"52000"},{"GP_ID":"204368601","TLE_LINE1":"1 52001U 22025AX  22143.91668981 -.00714731  00000-0 -85656-2 0  9996","NORAD_CAT_ID":"52001","APOAPSIS":"380.881","TIME_SYSTEM":"UTC","INCLINATION":"53.2174","EPOCH":"2022-05-23T22:00:01.999584","SITE":"AFETR","BSTAR":"-0.00856560000000","MEAN_ANOMALY":"343.9482","CLASSIFICATION_TYPE":"U","CENTER_NAME":"EARTH","RA_OF_ASC_NODE":"127.1102","LAUNCH_DATE":"2022-03-09","SEMIMAJOR_AXIS":"6758.294","MEAN_MOTION":"15.62597416","OBJECT_TYPE":"PAYLOAD","PERIAPSIS":"379.438","ARG_OF_PERICENTER":"90.8310","REF_FRAME":"TEME","ECCENTRICITY":"0.00010680","RCS_SIZE":"LARGE","OBJECT_NAME":"STARLINK-3659","PERIOD":"92.154","ELEMENT_SET_NO":"999","MEAN_ELEMENT_THEORY":"SGP4","EPHEMERIS_TYPE":"0","TLE_LINE2":"2 52001  53.2174 127.1102 0001068  90.8310 343.9482 15.62597416  1305","FILE":"3460905","MEAN_MOTION_DOT":"-0.00714731","OBJECT_ID":"2022-025AX","MEAN_MOTION_DDOT":"0.0000000000000","COUNTRY_CODE":"US","DECAY_DATE":null,"REV_AT_EPOCH":"130"},{"MEAN_MOTION":"15.62606022","OBJECT_TYPE":"PAYLOAD","ARG_OF_PERICENTER":"65.9822","REF_FRAME":"TEME","PERIAPSIS":"379.358","ECCENTRICITY":"0.00011490","OBJECT_NAME":"STARLINK-3668","RCS_SIZE":"LARGE","PERIOD":"92.154","EPHEMERIS_TYPE":"0","MEAN_ELEMENT_THEORY":"SGP4","TLE_LINE2":"2 52002  53.2174 127.1143 0001149  65.9822  10.2846 15.62606022  1304","FILE":"3460905","MEAN_MOTION_DOT":"-0.00714807","ELEMENT_SET_NO":"999","COUNTRY_CODE":"US","DECAY_DATE":null,"REV_AT_EPOCH":"130","MEAN_MOTION_DDOT":"0.0000000000000","OBJECT_ID":"2022-025AY","TLE_LINE1":"1 52002U 22025AY  22143.91668981 -.00714807  00000-0 -85635-2 0  9998","GP_ID":"204368801","NORAD_CAT_ID":"52002","TIME_SYSTEM":"UTC","INCLINATION":"53.2174","APOAPSIS":"380.911","EPOCH":"2022-05-23T22:00:01.999584","SITE":"AFETR","BSTAR":"-0.00856350000000","CENTER_NAME":"EARTH","RA_OF_ASC_NODE":"127.1143","LAUNCH_DATE":"2022-03-09","CLASSIFICATION_TYPE":"U","MEAN_ANOMALY":"10.2846","SEMIMAJOR_AXIS":"6758.270"},{"PERIOD":"92.153","RCS_SIZE":"LARGE","OBJECT_NAME":"STARLINK-3654","MEAN_MOTION_DDOT":"0.0000000000000","OBJECT_ID":"2022-025AZ","COUNTRY_CODE":"US","DECAY_DATE":null,"REV_AT_EPOCH":"130","ELEMENT_SET_NO":"999","EPHEMERIS_TYPE":"0","MEAN_ELEMENT_THEORY":"SGP4","FILE":"3460905","TLE_LINE2":"2 52003  53.2174 127.1193 0001070  92.6600 344.3505 15.62610334  1308","MEAN_MOTION_DOT":"-0.00714674","OBJECT_TYPE":"PAYLOAD","MEAN_MOTION":"15.62610334","ECCENTRICITY":"0.00010700","PERIAPSIS":"379.399","ARG_OF_PERICENTER":"92.6600","REF_FRAME":"TEME","MEAN_ANOMALY":"344.3505","CLASSIFICATION_TYPE":"U","CENTER_NAME":"EARTH","RA_OF_ASC_NODE":"127.1193","LAUNCH_DATE":"2022-03-09","BSTAR":"-0.00856050000000","SEMIMAJOR_AXIS":"6758.257","NORAD_CAT_ID":"52003","TLE_LINE1":"1 52003U 22025AZ  22143.91668981 -.00714674  00000-0 -85605-2 0  9998","GP_ID":"204368367","EPOCH":"2022-05-23T22:00:01.999584","SITE":"AFETR","APOAPSIS":"380.845","TIME_SYSTEM":"UTC","INCLINATION":"53.2174"}];
